{"type":"FeatureCollection","provenance":{"geometry_source":[{"key":"ne_10m_admin_1_states_provinces.json","url":"https://raw.githubusercontent.com/martynafford/natural-earth-geojson/master/10m/cultural/ne_10m_admin_1_states_provinces.json","sha256":"a0056a85ab6f065fe57fbe1df3723f1bdfbc28a0eca193b315b7491fba2287e8","bytes":63251601,"downloaded_utc":"2026-08-18T00:14:55Z","licence":"Public domain. Natural Earth: 'All versions of Natural Earth raster + vector map data found on this website are in the public domain. You may use the maps in any manner, including modifying the content and design, electronic dissemination, and offset printing.'","licence_url":"https://www.naturalearthdata.com/about/terms-of-use/","note":"Natural Earth 10m admin-1 states/provinces, via the martynafford GeoJSON conversion of the official shapefiles. Supplies US state and Mexican state coastlines with names."}],"geometry_selection":"admin='United States of America' AND name='Hawaii'; each polygon of the MultiPolygon emitted separately","name_source":[{"key":"gnis.DomesticNames_HI_Text.zip","url":"https://prd-tnm.s3.amazonaws.com/StagedProducts/GeographicNames/DomesticNames/DomesticNames_HI_Text.zip","sha256":"b6a3ef7caf6c5c264979f8b94d741e2adbdc7e39eccc3c171e0c9dc9e62e5d74","bytes":276526,"downloaded_utc":"2026-08-18T00:13:01Z","licence":"Public domain. A work of the United States Geological Survey / U.S. Board on Geographic Names; U.S. Government works are not subject to copyright.","licence_url":"https://www.usgs.gov/faqs/what-are-terms-uselicensing-map-services-and-data-national-map","note":"USGS GNIS Domestic Names, Hawaii. The only source in this build that publishes the individual island names."}],"name_rule":"USGS GNIS feature_class='Island' whose published primary coordinate (prim_lat_dec/prim_long_dec) falls inside the polygon. Tier 1: the eight official main-island names, each asserted to hit exactly one distinct polygon. Tier 2: any polygon containing exactly one GNIS island point takes that name. Otherwise name=null.","gaps":[{"key":"coastlines.hawaii.island_names","what":"5 of 14 Hawaii polygons carry no island name","why":"Natural Earth's Hawaii feature is unnamed per polygon, and the USGS GNIS join leaves these Northwestern Hawaiian Islands either with no Island-class point inside the polygon or with more than one (Kure Atoll / Green Island share a polygon). No name was invented for them.","impact":"A landfall on one of these uninhabited NWHI polygons is published with region='hawaii' and sub_region=NULL. All eight MAIN Hawaiian islands -- the ones the use case asks about -- are named.","url":"https://prd-tnm.s3.amazonaws.com/StagedProducts/GeographicNames/DomesticNames/DomesticNames_HI_Text.zip","attempted_utc":"2026-08-18T00:36:53Z"}],"region":"hawaii","built_utc":"2026-08-18T00:36:50Z","processing_version":"1.0.0","coordinate_precision_dp":4,"polygons":14,"vertices":651},"features":[{"type":"Feature","properties":{"region":"hawaii","name":"Island of Hawaii","name_official":"Island of Hawaiʻi"},"geometry":{"type":"Polygon","coordinates":[[[-155.6065,20.138],[-155.5864,20.1229],[-155.5631,20.1284],[-155.5272,20.1263],[-155.4911,20.113],[-155.4207,20.0902],[-155.3323,20.0467],[-155.2151,19.9756],[-155.168,19.9468],[-155.1159,19.8967],[-155.0871,19.8604],[-155.0864,19.821],[-155.0881,19.7686],[-155.0854,19.7274],[-155.0575,19.7285],[-155.0185,19.7458],[-154.9899,19.7267],[-154.9767,19.7058],[-154.98,19.6628],[-154.967,19.6363],[-154.9499,19.6114],[-154.8996,19.567],[-154.8466,19.5449],[-154.8253,19.5275],[-154.8141,19.5066],[-154.8172,19.4797],[-154.8299,19.4641],[-154.8747,19.4129],[-154.9189,19.3973],[-154.9823,19.3392],[-155.0251,19.3276],[-155.0267,19.3162],[-155.0626,19.3078],[-155.093,19.2862],[-155.153,19.2692],[-155.203,19.2556],[-155.2451,19.2655],[-155.2693,19.2662],[-155.2911,19.2595],[-155.3144,19.2457],[-155.3457,19.2248],[-155.3641,19.2036],[-155.3847,19.2005],[-155.4001,19.1937],[-155.4226,19.1801],[-155.4368,19.1699],[-155.4878,19.1425],[-155.5028,19.1377],[-155.5461,19.0982],[-155.5537,19.082],[-155.5523,19.0456],[-155.5706,19.0268],[-155.6021,18.9974],[-155.6185,18.9555],[-155.633,18.9402],[-155.6512,18.9261],[-155.6748,18.9061],[-155.6835,18.9112],[-155.6829,18.9329],[-155.7042,18.9491],[-155.7444,18.9693],[-155.7922,18.997],[-155.8173,19.0132],[-155.8591,19.0238],[-155.8781,19.0291],[-155.884,19.0473],[-155.891,19.0657],[-155.9039,19.0695],[-155.9121,19.0962],[-155.9199,19.1386],[-155.9084,19.189],[-155.8855,19.3342],[-155.8874,19.3596],[-155.9009,19.3827],[-155.913,19.4143],[-155.9295,19.4618],[-155.9366,19.4813],[-155.9464,19.4936],[-155.9564,19.5142],[-155.954,19.5361],[-155.9656,19.5566],[-155.9714,19.5797],[-155.9822,19.6077],[-155.9995,19.6322],[-156.0148,19.6434],[-156.0363,19.6679],[-156.0602,19.7312],[-156.0502,19.7595],[-156.0388,19.7831],[-156.0174,19.8011],[-155.9968,19.8144],[-155.9875,19.8244],[-155.982,19.8433],[-155.968,19.8542],[-155.926,19.8688],[-155.9058,19.902],[-155.8959,19.9135],[-155.8734,19.9513],[-155.8509,19.9753],[-155.8355,19.9757],[-155.8283,20.007],[-155.8241,20.0201],[-155.8311,20.0394],[-155.8477,20.0545],[-155.8826,20.1049],[-155.897,20.1488],[-155.8994,20.1841],[-155.8993,20.2167],[-155.8805,20.252],[-155.8672,20.2631],[-155.8311,20.2634],[-155.7661,20.2492],[-155.738,20.2438],[-155.7326,20.2388],[-155.7292,20.2314],[-155.728,20.2216],[-155.7117,20.1961],[-155.6733,20.1817],[-155.6481,20.168],[-155.6307,20.1482],[-155.6065,20.138]]]}},{"type":"Feature","properties":{"region":"hawaii","name":"Kahoolawe","name_official":"Kahoʻolawe"},"geometry":{"type":"Polygon","coordinates":[[[-156.5341,20.5318],[-156.5446,20.5132],[-156.5729,20.513],[-156.5995,20.5174],[-156.6189,20.5138],[-156.6465,20.5081],[-156.6793,20.5047],[-156.7006,20.5254],[-156.6885,20.5401],[-156.6672,20.5577],[-156.6391,20.5751],[-156.6088,20.591],[-156.5826,20.6],[-156.5618,20.598],[-156.5366,20.5709],[-156.5498,20.5415],[-156.5341,20.5318]]]}},{"type":"Feature","properties":{"region":"hawaii","name":"Lanai","name_official":"Lānaʻi"},"geometry":{"type":"Polygon","coordinates":[[[-156.9137,20.7347],[-156.9623,20.7324],[-156.9824,20.7594],[-156.9871,20.7829],[-156.9884,20.8015],[-156.9886,20.8249],[-156.9921,20.8463],[-157.0092,20.8559],[-157.0508,20.8714],[-157.0631,20.8904],[-157.0552,20.9114],[-157.0316,20.9227],[-156.9904,20.9275],[-156.8927,20.9141],[-156.8484,20.8768],[-156.8483,20.8768],[-156.8327,20.8607],[-156.8163,20.8417],[-156.8058,20.8251],[-156.8035,20.8126],[-156.8097,20.7955],[-156.8313,20.7638],[-156.8768,20.7443],[-156.9137,20.7347]]]}},{"type":"Feature","properties":{"region":"hawaii","name":"Maui","name_official":"Maui"},"geometry":{"type":"Polygon","coordinates":[[[-156.5896,21.0277],[-156.5814,21.0181],[-156.5714,21.0165],[-156.5557,21.0083],[-156.5424,21.0034],[-156.5375,20.9907],[-156.5259,20.9873],[-156.5229,20.974],[-156.523,20.9622],[-156.5091,20.9503],[-156.5002,20.9376],[-156.493,20.9218],[-156.4817,20.9044],[-156.4641,20.9056],[-156.4529,20.9179],[-156.4337,20.9177],[-156.4188,20.9201],[-156.3896,20.9215],[-156.3785,20.924],[-156.3464,20.9459],[-156.3307,20.9512],[-156.3154,20.9529],[-156.2983,20.9527],[-156.2819,20.9503],[-156.2686,20.9451],[-156.2644,20.9445],[-156.261,20.9437],[-156.2581,20.9416],[-156.2556,20.9376],[-156.2429,20.9416],[-156.2269,20.932],[-156.2218,20.9203],[-156.2153,20.9147],[-156.2072,20.9069],[-156.1973,20.895],[-156.1792,20.8835],[-156.1661,20.8715],[-156.1648,20.8628],[-156.153,20.8618],[-156.1479,20.8617],[-156.1444,20.8671],[-156.1313,20.8575],[-156.1257,20.844],[-156.1193,20.8361],[-156.085,20.8315],[-156.051,20.8159],[-156.0017,20.8004],[-155.9796,20.7574],[-155.9847,20.7176],[-156.0031,20.6859],[-156.0277,20.6794],[-156.0484,20.6509],[-156.0754,20.6507],[-156.1295,20.6245],[-156.1654,20.6252],[-156.1854,20.6272],[-156.2038,20.626],[-156.2537,20.6044],[-156.2849,20.5886],[-156.3026,20.5812],[-156.3267,20.5872],[-156.3359,20.5882],[-156.3525,20.5924],[-156.3655,20.5888],[-156.4077,20.5872],[-156.4355,20.612],[-156.4386,20.6222],[-156.4517,20.6357],[-156.4431,20.6426],[-156.4427,20.6606],[-156.4505,20.7264],[-156.4584,20.7445],[-156.458,20.7648],[-156.4643,20.7814],[-156.4684,20.7846],[-156.4753,20.7908],[-156.4857,20.7967],[-156.5016,20.7962],[-156.5159,20.7901],[-156.5213,20.7762],[-156.5339,20.7741],[-156.5486,20.7821],[-156.5627,20.7918],[-156.5845,20.7955],[-156.606,20.8084],[-156.6202,20.8071],[-156.6333,20.8237],[-156.6571,20.8477],[-156.6849,20.8819],[-156.6861,20.9038],[-156.696,20.9158],[-156.6923,20.9361],[-156.6859,20.9642],[-156.6768,20.988],[-156.6665,21.0034],[-156.6538,21.0048],[-156.6454,21.0134],[-156.6448,21.0212],[-156.6358,21.0271],[-156.6266,21.0262],[-156.6157,21.0251],[-156.6073,21.0273],[-156.6038,21.032],[-156.5979,21.0327],[-156.5896,21.0277]]]}},{"type":"Feature","properties":{"region":"hawaii","name":"Molokai","name_official":"Molokaʻi"},"geometry":{"type":"Polygon","coordinates":[[[-157.2488,21.2217],[-157.2329,21.2191],[-157.2094,21.2203],[-157.1969,21.217],[-157.1887,21.2051],[-157.1736,21.2051],[-157.0791,21.1917],[-157.0281,21.1846],[-156.9897,21.1828],[-156.9818,21.194],[-156.9808,21.2034],[-156.9756,21.2111],[-156.9658,21.2133],[-156.9524,21.1967],[-156.9478,21.1778],[-156.9252,21.1712],[-156.897,21.1652],[-156.8467,21.1667],[-156.8247,21.1695],[-156.8106,21.1739],[-156.8003,21.1777],[-156.7918,21.176],[-156.7735,21.1772],[-156.7595,21.173],[-156.749,21.171],[-156.739,21.1728],[-156.7332,21.1688],[-156.7359,21.1641],[-156.7291,21.1609],[-156.7132,21.1614],[-156.7057,21.1565],[-156.7248,21.1237],[-156.7556,21.0955],[-156.7934,21.0759],[-156.831,21.0611],[-156.8696,21.0534],[-156.9086,21.057],[-156.9474,21.0645],[-157.0249,21.0838],[-157.0724,21.0994],[-157.1403,21.0942],[-157.1873,21.0918],[-157.2226,21.0868],[-157.251,21.0884],[-157.2731,21.0873],[-157.2926,21.0947],[-157.3039,21.1096],[-157.3043,21.1282],[-157.2965,21.1439],[-157.2854,21.1561],[-157.2674,21.1625],[-157.2512,21.1803],[-157.2466,21.1998],[-157.259,21.2148],[-157.2598,21.2219],[-157.2488,21.2217]]]}},{"type":"Feature","properties":{"region":"hawaii","name":"Oahu","name_official":"Oʻahu"},"geometry":{"type":"Polygon","coordinates":[[[-157.8938,21.5984],[-157.8875,21.5809],[-157.8767,21.5754],[-157.8739,21.5693],[-157.8712,21.5579],[-157.8636,21.5598],[-157.8535,21.5563],[-157.8459,21.548],[-157.8364,21.534],[-157.8363,21.5186],[-157.8364,21.5113],[-157.8444,21.5114],[-157.8495,21.5054],[-157.8476,21.4886],[-157.8455,21.4778],[-157.8421,21.461],[-157.8328,21.4583],[-157.8205,21.4534],[-157.8113,21.4419],[-157.8035,21.4291],[-157.7884,21.4242],[-157.7863,21.4168],[-157.7762,21.4133],[-157.7696,21.4206],[-157.76,21.4332],[-157.7751,21.4428],[-157.7735,21.4542],[-157.7626,21.4588],[-157.7381,21.4558],[-157.7257,21.459],[-157.7229,21.4516],[-157.7376,21.4377],[-157.7405,21.4196],[-157.7387,21.4055],[-157.7222,21.3958],[-157.7093,21.3836],[-157.7058,21.3749],[-157.7103,21.3635],[-157.7068,21.352],[-157.6961,21.3364],[-157.6745,21.3229],[-157.6536,21.3126],[-157.6472,21.3064],[-157.6589,21.2938],[-157.6837,21.2727],[-157.6932,21.2627],[-157.7041,21.2595],[-157.7076,21.2656],[-157.7068,21.275],[-157.7153,21.2818],[-157.7421,21.2755],[-157.7638,21.2731],[-157.7819,21.2646],[-157.795,21.2547],[-157.8108,21.2542],[-157.818,21.2576],[-157.8229,21.2664],[-157.8307,21.2773],[-157.8637,21.2904],[-157.8801,21.298],[-157.8908,21.3128],[-157.895,21.3223],[-157.8949,21.3317],[-157.9021,21.3284],[-157.9152,21.3165],[-157.9052,21.3056],[-157.947,21.3027],[-157.9462,21.3074],[-157.9404,21.3107],[-157.9483,21.3168],[-157.9641,21.3163],[-157.9647,21.3264],[-157.9675,21.3345],[-157.9653,21.3412],[-157.9681,21.3479],[-157.9572,21.3525],[-157.9471,21.357],[-157.9362,21.363],[-157.9318,21.3717],[-157.944,21.3805],[-157.954,21.3846],[-157.9609,21.3888],[-157.9655,21.3847],[-157.9692,21.372],[-157.9778,21.3761],[-157.9856,21.385],[-157.9913,21.3911],[-157.9907,21.3776],[-157.9844,21.3621],[-157.9895,21.3588],[-158.0116,21.3765],[-158.0202,21.3833],[-158.0131,21.3671],[-157.9968,21.3509],[-157.9847,21.3414],[-157.9754,21.3339],[-157.9806,21.3185],[-157.9987,21.3113],[-158.0225,21.3076],[-158.0592,21.2999],[-158.078,21.2981],[-158.0943,21.2936],[-158.0989,21.2954],[-158.1034,21.2993],[-158.1153,21.3051],[-158.1242,21.3387],[-158.1347,21.3657],[-158.1482,21.3812],[-158.1574,21.3947],[-158.1761,21.4035],[-158.1808,21.4304],[-158.1871,21.4445],[-158.205,21.4587],[-158.2157,21.4655],[-158.2276,21.483],[-158.2281,21.5038],[-158.2293,21.5326],[-158.236,21.5416],[-158.2789,21.5753],[-158.2724,21.5786],[-158.2363,21.5849],[-158.1938,21.5872],[-158.1657,21.5856],[-158.1492,21.5862],[-158.1366,21.5893],[-158.1211,21.5859],[-158.1176,21.5981],[-158.1129,21.6039],[-158.0948,21.6138],[-158.0738,21.629],[-158.0658,21.6356],[-158.0672,21.6414],[-158.06,21.6525],[-158.0506,21.6713],[-158.0353,21.6834],[-158.0144,21.7015],[-157.9826,21.7099],[-157.9697,21.7091],[-157.9624,21.705],[-157.9567,21.6989],[-157.9502,21.6906],[-157.9339,21.6779],[-157.9333,21.6672],[-157.9247,21.6631],[-157.9241,21.6543],[-157.9155,21.6455],[-157.9202,21.6275],[-157.9073,21.6106],[-157.8938,21.5984]]]}},{"type":"Feature","properties":{"region":"hawaii","name":"Niihau","name_official":"Niʻihau"},"geometry":{"type":"Polygon","coordinates":[[[-160.1982,21.7839],[-160.2113,21.7802],[-160.2244,21.7892],[-160.2355,21.7928],[-160.248,21.828],[-160.2455,21.8508],[-160.2344,21.8745],[-160.1954,21.912],[-160.164,21.9345],[-160.1236,21.9563],[-160.1173,21.9696],[-160.1127,21.9817],[-160.1138,22.0002],[-160.1138,22.0003],[-160.0959,22.0078],[-160.0789,22.0072],[-160.06,22.0006],[-160.0514,21.9831],[-160.0599,21.974],[-160.0722,21.9595],[-160.0795,21.9379],[-160.0722,21.9108],[-160.0852,21.8935],[-160.1025,21.8863],[-160.1175,21.8784],[-160.1363,21.8729],[-160.1587,21.8596],[-160.1717,21.8486],[-160.1795,21.8335],[-160.191,21.8047],[-160.1982,21.7839]]]}},{"type":"Feature","properties":{"region":"hawaii","name":"Kauai","name_official":"Kauaʻi"},"geometry":{"type":"Polygon","coordinates":[[[-159.3882,22.2288],[-159.3738,22.2221],[-159.3579,22.2227],[-159.3387,22.213],[-159.3312,22.1979],[-159.3187,22.1858],[-159.3118,22.1845],[-159.3076,22.1711],[-159.3047,22.1611],[-159.3013,22.1511],[-159.3013,22.151],[-159.2928,22.1464],[-159.2926,22.1356],[-159.2947,22.1076],[-159.3041,22.0956],[-159.3187,22.0576],[-159.3332,22.0496],[-159.3347,22.0216],[-159.3317,22.0041],[-159.3306,21.9848],[-159.3317,21.9661],[-159.3341,21.9581],[-159.3479,21.9581],[-159.3591,21.9529],[-159.3516,21.9455],[-159.3479,21.9367],[-159.3536,21.93],[-159.3654,21.9308],[-159.3825,21.9174],[-159.3897,21.9054],[-159.3984,21.8981],[-159.415,21.8881],[-159.4164,21.8807],[-159.4272,21.8794],[-159.4337,21.8741],[-159.4373,21.8688],[-159.4819,21.8835],[-159.5093,21.8863],[-159.5296,21.8857],[-159.5676,21.893],[-159.5819,21.8944],[-159.5906,21.9017],[-159.5949,21.9004],[-159.5963,21.8937],[-159.605,21.8917],[-159.61,21.8997],[-159.623,21.9051],[-159.6345,21.9137],[-159.6417,21.9231],[-159.646,21.9318],[-159.6503,21.9398],[-159.6618,21.9425],[-159.6661,21.9505],[-159.6762,21.9552],[-159.6961,21.9582],[-159.7115,21.9638],[-159.7238,21.9699],[-159.7432,21.9732],[-159.7598,21.9785],[-159.7684,21.9952],[-159.7713,22.0052],[-159.78,22.0093],[-159.7872,22.0193],[-159.7872,22.0333],[-159.7858,22.0447],[-159.7851,22.0573],[-159.7865,22.066],[-159.7766,22.0695],[-159.7497,22.0981],[-159.7357,22.1152],[-159.7343,22.125],[-159.7342,22.1337],[-159.7326,22.1408],[-159.7259,22.1436],[-159.7235,22.1466],[-159.7165,22.1575],[-159.6942,22.1635],[-159.6682,22.1695],[-159.6394,22.1856],[-159.6213,22.2003],[-159.5982,22.2109],[-159.5896,22.221],[-159.5766,22.2257],[-159.5658,22.2256],[-159.5585,22.233],[-159.5484,22.231],[-159.5412,22.225],[-159.5376,22.2183],[-159.5297,22.2176],[-159.5167,22.2136],[-159.5081,22.2082],[-159.4994,22.2088],[-159.5023,22.2162],[-159.4994,22.2236],[-159.4813,22.2302],[-159.4626,22.2275],[-159.4402,22.2275],[-159.4287,22.2208],[-159.4193,22.2221],[-159.4077,22.2288],[-159.3997,22.2355],[-159.3882,22.2288]]]}},{"type":"Feature","properties":{"region":"hawaii","name":null,"name_official":null},"geometry":{"type":"Polygon","coordinates":[[[-161.9452,23.0399],[-161.9479,23.038],[-161.9464,23.0414],[-161.946,23.0446],[-161.9448,23.0462],[-161.9404,23.0456],[-161.9409,23.042],[-161.9427,23.0407],[-161.9452,23.0399]]]}},{"type":"Feature","properties":{"region":"hawaii","name":null,"name_official":null},"geometry":{"type":"Polygon","coordinates":[[[-164.7043,23.5793],[-164.6991,23.5705],[-164.7073,23.5726],[-164.7085,23.5745],[-164.7064,23.5766],[-164.7043,23.5793]]]}},{"type":"Feature","properties":{"region":"hawaii","name":null,"name_official":null},"geometry":{"type":"Polygon","coordinates":[[[-167.9962,25.0043],[-167.9968,25.0011],[-168.0028,25.0148],[-167.9999,25.0164],[-167.9956,25.0117],[-167.9951,25.0078],[-167.9962,25.0043]]]}},{"type":"Feature","properties":{"region":"hawaii","name":null,"name_official":null},"geometry":{"type":"Polygon","coordinates":[[[-171.7228,25.773],[-171.7294,25.7519],[-171.7391,25.7563],[-171.7407,25.769],[-171.7228,25.773]]]}},{"type":"Feature","properties":{"region":"hawaii","name":"Lisianski Island","name_official":"Lisianski Island"},"geometry":{"type":"Polygon","coordinates":[[[-173.9592,26.0596],[-173.96,26.0553],[-173.9656,26.0586],[-173.9664,26.062],[-173.9652,26.0661],[-173.965,26.0714],[-173.9628,26.0666],[-173.9605,26.0631],[-173.9592,26.0596]]]}},{"type":"Feature","properties":{"region":"hawaii","name":null,"name_official":null},"geometry":{"type":"Polygon","coordinates":[[[-178.2984,28.3874],[-178.3027,28.3865],[-178.3044,28.3879],[-178.298,28.391],[-178.2943,28.395],[-178.2924,28.3981],[-178.2904,28.4017],[-178.2879,28.393],[-178.2922,28.3901],[-178.2984,28.3874]]]}}]}
